{
  "60914": {
    "noradId": "60914",
    "tle": [
      "1 60914C 24154M   25344.84354167  .00378400  00000+0  11583-2 0  3447",
      "2 60914  53.1413 205.5629 0006270 182.1440  29.0734 15.90765294    17"
    ]
  },
  "60915": {
    "noradId": "60915",
    "tle": [
      "1 60915C 24154N   25344.83868056  .00001155  00000+0  95124-5 0  3440",
      "2 60915  53.1570 209.0666 0000778  98.9720 203.6785 15.69701788    14"
    ]
  },
  "60916": {
    "noradId": "60916",
    "tle": [
      "1 60916C 24154P   25344.81090278  .00025012  00000+0  84365-3 0  3443",
      "2 60916  53.1606 336.6793 0001274 116.1303  10.5142 15.30141158    14"
    ]
  },
  "60917": {
    "noradId": "60917",
    "tle": [
      "1 60917C 24154Q   25344.81437500 -.00033772  00000+0 -11380-2 0  3447",
      "2 60917  53.1605 336.4622 0001819  91.1475 159.2906 15.30232319    19"
    ]
  },
  "60918": {
    "noradId": "60918",
    "tle": [
      "1 60918C 24154R   25344.81368056  .00005120  00000+0  17258-3 0  3442",
      "2 60918  53.1588 336.9482 0001240  85.8412 276.4354 15.30183769    11"
    ]
  },
  "60919": {
    "noradId": "60919",
    "tle": [
      "1 60919C 24154S   25344.81159722  .00011131  00000+0  37524-3 0  3448",
      "2 60919  53.1598 336.3469 0001332  94.7718 204.3066 15.30174161    18"
    ]
  },
  "60920": {
    "noradId": "60920",
    "tle": [
      "1 60920C 24154T   25344.81645833  .00003335  00000+0  11241-3 0  3448",
      "2 60920  53.1590 336.9438 0001287  84.6897 287.0923 15.30183846    19"
    ]
  },
  "60921": {
    "noradId": "60921",
    "tle": [
      "1 60921C 24154U   25344.81159722 -.00000939  00000+0 -31645-4 0  3446",
      "2 60921  53.1612 336.5716 0001265  86.3952  96.3444 15.30190262    16"
    ]
  },
  "60922": {
    "noradId": "60922",
    "tle": [
      "1 60922C 24154V   25344.81090278  .00007253  00000+0  24449-3 0  3444",
      "2 60922  53.1597 336.7613 0001312  94.7636 351.0929 15.30179789    12"
    ]
  },
  "60923": {
    "noradId": "60923",
    "tle": [
      "1 60923C 24154W   25344.81715278  .00002499  00000+0  84243-4 0  3445",
      "2 60923  53.1586 336.8368 0001260  84.8640 343.0966 15.30183388    18"
    ]
  },
  "60924": {
    "noradId": "60924",
    "tle": [
      "1 60924C 24155A   25344.83729167 -.00018577  00000+0 -15306-3 0  3440",
      "2 60924  53.1564  59.6282 0001106  81.8886 226.3173 15.69723020    16"
    ]
  },
  "60925": {
    "noradId": "60925",
    "tle": [
      "1 60925C 24155B   25344.84354167  .00000456  00000+0  37566-5 0  3445",
      "2 60925  53.1570  59.4263 0001105  85.9229 340.8376 15.69702513    17"
    ]
  },
  "60926": {
    "noradId": "60926",
    "tle": [
      "1 60926C 24155C   25344.84423611 -.00022730  00000+0 -18730-3 0  3448",
      "2 60926  53.1570  59.3093 0001279  72.7101  53.4533 15.69723554    13"
    ]
  },
  "60927": {
    "noradId": "60927",
    "tle": [
      "1 60927C 24155D   25344.84145833 -.00016939  00000+0 -13957-3 0  3446",
      "2 60927  53.1571  59.3797 0001001  87.8276 354.8908 15.69719243    13"
    ]
  },
  "60928": {
    "noradId": "60928",
    "tle": [
      "1 60928C 24155E   25344.83868056 -.00025388  00000+0 -20918-3 0  3448",
      "2 60928  53.1568  59.2798 0001207  89.8944  32.5831 15.69729393    14"
    ]
  },
  "60929": {
    "noradId": "60929",
    "tle": [
      "1 60929C 24155F   25344.84076389 -.00002767  00000+0 -22796-4 0  3443",
      "2 60929  53.1568  59.2123 0001224  88.9714  73.0343 15.69704651    19"
    ]
  },
  "60930": {
    "noradId": "60930",
    "tle": [
      "1 60930C 24155G   25344.84284722 -.00040379  00000+0 -33303-3 0  3443",
      "2 60930  53.1567  59.1445 0001250  72.4113 129.1765 15.69719637    17"
    ]
  },
  "60931": {
    "noradId": "60931",
    "tle": [
      "1 60931C 24155H   25344.84006944  .00001868  00000+0  15391-4 0  3448",
      "2 60931  53.1567  59.1011 0001247  89.2139 124.3364 15.69700750    15"
    ]
  },
  "60932": {
    "noradId": "60932",
    "tle": [
      "1 60932C 24155J   25344.83868056  .00006219  00000+0  51239-4 0  3444",
      "2 60932  53.1567  59.0508 0001195  82.7784 150.6577 15.69697639    11"
    ]
  },
  "60933": {
    "noradId": "60933",
    "tle": [
      "1 60933C 24155K   25344.84215278  .00005101  00000+0  42030-4 0  3446",
      "2 60933  53.1565  58.9768 0001089  76.5151 204.2876 15.69699941    13"
    ]
  },
  "60934": {
    "noradId": "60934",
    "tle": [
      "1 60934C 24155L   25344.83868056  .00006090  00000+0  50178-4 0  3444",
      "2 60934  53.1564  58.9371 0000998  77.9706 210.9463 15.69695784    19"
    ]
  },
  "60935": {
    "noradId": "60935",
    "tle": [
      "1 60935C 24155M   25344.84354167 -.00005796  00000+0 -47752-4 0  3447",
      "2 60935  53.1567  59.5342 0001149  71.3127 299.9772 15.69710182    12"
    ]
  },
  "60936": {
    "noradId": "60936",
    "tle": [
      "1 60936C 24155N   25344.84215278 -.00007268  00000+0 -59878-4 0  3445",
      "2 60936  53.1569  59.4837 0001173  88.1403 303.0277 15.69712936    19"
    ]
  },
  "60937": {
    "noradId": "60937",
    "tle": [
      "1 60937C 24155P   25344.81645833  .00004857  00000+0  16374-3 0  3449",
      "2 60937  53.1589 182.6466 0001277  91.0700 196.1172 15.30179745    15"
    ]
  },
  "60938": {
    "noradId": "60938",
    "tle": [
      "1 60938C 24155Q   25344.81437500  .00016801  00000+0  56076-3 0  3445",
      "2 60938  53.1583 169.8865 0001395 103.3351  11.7785 15.30488810    18"
    ]
  },
  "60939": {
    "noradId": "60939",
    "tle": [
      "1 60939C 24155R   25344.81506944  .00020153  00000+0  67942-3 0  3444",
      "2 60939  53.1596 182.5021 0001282  94.1047 261.0199 15.30162682    18"
    ]
  },
  "60940": {
    "noradId": "60940",
    "tle": [
      "1 60940C 24155S   25344.81576389 -.00000703  00000+0 -23695-4 0  3445",
      "2 60940  53.1592 182.5691 0001301  88.4819 235.5903 15.30187877    16"
    ]
  },
  "60941": {
    "noradId": "60941",
    "tle": [
      "1 60941C 24155T   25344.81090278 -.00003802  00000+0 -12816-3 0  3449",
      "2 60941  53.1594 182.5548 0001352  88.8127 225.9162 15.30192553    19"
    ]
  },
  "60942": {
    "noradId": "60942",
    "tle": [
      "1 60942C 24155U   25344.81506944  .00004512  00000+0  15210-3 0  3440",
      "2 60942  53.1592 182.6192 0001316  88.3089 208.6726 15.30180145    14"
    ]
  },
  "60943": {
    "noradId": "60943",
    "tle": [
      "1 60943C 24155V   25344.78243056 -.00010004  00000+0 -33722-3 0  3442",
      "2 60943  53.1582 182.8693 0001312  94.5928 330.1404 15.30196240    16"
    ]
  },
  "60944": {
    "noradId": "60944",
    "tle": [
      "1 60944C 24155W   25344.81576389  .00021478  00000+0  72384-3 0  3447",
      "2 60944  53.1585 182.6795 0001419  91.0021 174.8323 15.30171578    15"
    ]
  },
  "60991": {
    "noradId": "60991",
    "tle": [
      "1 60991C 24158B   25344.84076389  .00004389  00000+0  36162-4 0  3447",
      "2 60991  53.1570 359.0507 0001281  90.4075 237.8691 15.69699672    11"
    ]
  },
  "60992": {
    "noradId": "60992",
    "tle": [
      "1 60992C 24158C   25344.84076389  .00007055  00000+0  58142-4 0  3443",
      "2 60992  53.1571 359.2223 0001292  79.9439 165.1338 15.69691875    16"
    ]
  },
  "60993": {
    "noradId": "60993",
    "tle": [
      "1 60993C 24158D   25344.83937500  .00008302  00000+0  68399-4 0  3445",
      "2 60993  53.1569 359.6222 0001294  85.9153 317.1435 15.69696015    17"
    ]
  },
  "60994": {
    "noradId": "60994",
    "tle": [
      "1 60994C 24158E   25344.83798611 -.00009014  00000+0 -74249-4 0  3448",
      "2 60994  53.1568 359.5770 0001310  89.8606 333.0542 15.69719626    19"
    ]
  },
  "60995": {
    "noradId": "60995",
    "tle": [
      "1 60995C 24158F   25344.83868056  .00005125  00000+0  42227-4 0  3448",
      "2 60995  53.1568 359.5119 0001276  77.5010  17.1102 15.69697862    10"
    ]
  },
  "60996": {
    "noradId": "60996",
    "tle": [
      "1 60996C 24158G   25344.84006944  .00015414  00000+0  12700-3 0  3444",
      "2 60996  53.1567 359.4480 0001219  95.8181  34.3850 15.69689181    15"
    ]
  },
  "60997": {
    "noradId": "60997",
    "tle": [
      "1 60997C 24158H   25344.84215278 -.00000377  00000+0 -31059-5 0  3441",
      "2 60997  53.1568 337.0914 0001343  79.8456  79.3094 15.69707124    13"
    ]
  },
  "60998": {
    "noradId": "60998",
    "tle": [
      "1 60998C 24158J   25344.83798611  .00012006  00000+0  98928-4 0  3445",
      "2 60998  53.1567 359.4009 0001276  88.1714  57.9942 15.69690398    19"
    ]
  },
  "60999": {
    "noradId": "60999",
    "tle": [
      "1 60999C 24158K   25344.84423611 -.00026571  00000+0 -21853-3 0  3448",
      "2 60999  53.1568 359.3129 0001390  84.4612 124.7485 15.69773420    19"
    ]
  },
  "61000": {
    "noradId": "61000",
    "tle": [
      "1 61000C 24158L   25344.84215278  .00007745  00000+0  63817-4 0  3447",
      "2 61000  53.1570 359.2661 0001122  80.2447 144.9482 15.69694900    15"
    ]
  },
  "61001": {
    "noradId": "61001",
    "tle": [
      "1 61001C 24158M   25344.83729167 -.00002856  00000+0 -23530-4 0  3442",
      "2 61001  53.1571 359.1767 0001250  84.8458 168.3304 15.69703689    15"
    ]
  },
  "61002": {
    "noradId": "61002",
    "tle": [
      "1 61002C 24158N   25344.84215278 -.00000497  00000+0 -40955-5 0  3447",
      "2 61002  53.1570 359.0984 0001145  92.9018 215.4975 15.69701300    16"
    ]
  },
  "61003": {
    "noradId": "61003",
    "tle": [
      "1 61003C 24158P   25344.81020833 -.00003529  00000+0 -11894-3 0  3443",
      "2 61003  53.1572 118.4212 0001178  91.8342 234.4911 15.30192448    10"
    ]
  },
  "61004": {
    "noradId": "61004",
    "tle": [
      "1 61004C 24158Q   25344.81645833  .00006713  00000+0  22628-3 0  3440",
      "2 61004  53.1568 118.3473 0001084  79.7542 304.2863 15.30181591    16"
    ]
  }
}